header,cluster_trace,postal_code,ageb,estado,municipio,colonia,metodo,lat,lon
CEC-20-1314|MEX|ST_2|Cluster_NA|2020/08/31,,55044,1503300013784,Mexico,Ecatepec de Morelos,Real de Ecatepec,Distribucion_Colonia,19.6186298,-99.0008672
CEC-21-4010|MEX|ST_2|Cluster_NA|2021/06/17,,.,1505800012003,Mexico,Nezahualcoyotl,Maravillas,Distribucion_Colonia,19.4189961,-99.0444793
CEC-19-0546|MEX|ST_2|Cluster_146|2019/10/11,,.,1503700090223,Mexico,Ixtapaluca,.,Distribucion_Municipio,,
CEC-22-7773|MEX|ST_2|Cluster_NA|2022/06/01,,.,1507000050904,Mexico,La Paz_EMX,Tepozanes,Distribucion_Municipio,,
CEC-22-7416|MEX|ST_2|Cluster_NA|2022/05/09,,.,1509900461667,Mexico,Tecamac,San Pablo Tecalco,Distribucion_Colonia,19.6723695,-98.9583853
CEC-19-0775|MEX|ST_2|Cluster_NA|2019/11/08,,.,1505800010312,Mexico,Nezahualcoyotl,.,Distribucion_Municipio,,
CEC-20-1521|MEX|ST_2|Cluster_NA|2020/09/23,,54695,1503500270375,Mexico,Huehuetoca,Santa Teresa 3 y 3 Bis,Distribucion_Municipio,,
CEC-19-0083|MEX|ST_2|Cluster_NA|2019/08/21,,.,1510400011955,Mexico,Tlalnepantla de Baz,.,Distribucion_Municipio,,
CEC-20-1986|MEX|ST_2|Cluster_NA|2020/11/11,,.,1503700710187,Mexico,Ixtapaluca,.,Distribucion_Municipio,,
CEC-19-0186|MEX|ST_2|Cluster_NA|2019/09/04,,.,1509900211686,Mexico,Tecamac,.,Distribucion_Municipio,,
CEC-19-0027|MEX|ST_2|Cluster_NA|2019/07/19,,.,1501300010128,Mexico,Atizapan de Zaragoza,.,Distribucion_Municipio,,
CEC-20-1062|MEX|ST_2|Cluster_NA|2020/08/04,,.,151040001029A,Mexico,Tlalnepantla de Baz,.,Distribucion_Municipio,,
CEC-19-0127|MEX|ST_2|Cluster_NA|2019/08/28,,.,1503300014636,Mexico,Ecatepec de Morelos,.,Distribucion_Municipio,,
CEC-20-1411|MEX|ST_2|Cluster_NA|2020/09/14,,.,1503300013657,Mexico,Ecatepec de Morelos,Luis Donaldo Colosio,Distribucion_Colonia,19.6419714,-99.0659138
CEC-22-8338|MEX|ST_2|Cluster_NA|2022/07/18,,.,1502400010085,Mexico,Chimalhuacan,.,Distribucion_Municipio,,
CEC-22-6930|MEX|ST_2|Cluster_NA|2022/03/25,,.,150360007032A,Mexico,Huixquilucan,San Fernando,Distribucion_Colonia,19.3855517,-99.2832147
CEC-19-0298|MEX|ST_2|Cluster_NA|2019/09/13,,.,1510300010057,Mexico,Tlalmanalco,.,Distribucion_Municipio,,
CEC-22-7199|MEX|ST_2|Cluster_NA|2022/04/19,,.,151000007020A,Mexico,Texcoco,Pentecostes,Distribucion_Colonia,19.5489591,-98.8638618
CEC-21-4333|MEX|ST_2|Cluster_NA|2021/07/15,,.,1502400010210,Mexico,Chimalhuacan,.,Distribucion_Municipio,,
CEC-22-6963|MEX|ST_2|Cluster_NA|2022/03/28,,.,1501300011855,Mexico,Atizapan de Zaragoza,Alfredo V Bonfil,Distribucion_Municipio,,
CEC-22-8463|MEX|ST_2|Cluster_NA|2022/08/02,,.,151000093,Mexico,Texcoco,.,Distribucion_Municipio,,
CEC-19-0304|MEX|ST_2|Cluster_NA|2019/09/17,,.,150580001197A,Mexico,Nezahualcoyotl,.,Distribucion_Municipio,,
CEC-21-4811|MEX|ST_2|Cluster_NA|2021/09/13,,.,1503300012837,Mexico,Ecatepec de Morelos,.,Distribucion_Municipio,,
CEC-19-0990|MEX|ST_2|Cluster_NA|2019/12/05,,.,1510000070182,Mexico,Texcoco,Wenceslao Victoria,Distribucion_Municipio,,
CEC-22-8761|MEX|ST_2|Cluster_NA|2022/08/25,,.,1505800011128,Mexico,Nezahualcoyotl,.,Distribucion_Municipio,,
CEC-19-0520|MEX|ST_2|Cluster_NA|2019/10/09,,.,1510000010110,Mexico,Texcoco,.,Distribucion_Municipio,,
CEC-19-1027|MEX|ST_2|Cluster_NA|2019/12/11,,.,1505800010350,Mexico,Nezahualcoyotl,.,Distribucion_Municipio,,
CEC-19-0589|MEX|ST_2|Cluster_NA|2019/10/16,,.,1512200011046,Mexico,Valle de Chalco Solidaridad,.,Distribucion_Municipio,,
CEC-19-0877|MEX|ST_2|Cluster_NA|2019/11/22,,.,1509901731629,Mexico,Tecamac,.,Distribucion_Municipio,,
CEC-20-1308|MEX|ST_2|Cluster_NA|2020/08/31,,.,1503700710562,Mexico,Ixtapaluca,Santo Tomas,Distribucion_Colonia,19.3174288,-98.9067362
CEC-22-7814|MEX|ST_2|Cluster_NA|2022/06/03,,.,1502400010386,Mexico,Chimalhuacan,Acuitlapilco Primera Seccion,Distribucion_Municipio,,
CEC-21-4926|MEX|ST_2|Cluster_NA|2021/09/22,,.,150330001046A,Mexico,Ecatepec de Morelos,Carlos Hank Gonzalez,Distribucion_Colonia,19.5770864,-99.0247755
CEC-19-0441|MEX|ST_2|Cluster_NA|2019/10/02,,.,1512200010283,Mexico,Valle de Chalco Solidaridad,.,Distribucion_Municipio,,
CEC-19-0165|MEX|ST_2|Cluster_NA|2019/08/30,,.,1505800011382,Mexico,Nezahualcoyotl,.,Distribucion_Municipio,,
CEC-21-4751|MEX|ST_2|Cluster_NA|2021/09/02,,.,1502000010368,Mexico,Coacalco de Berriozabal,Santa Maria II,Distribucion_Municipio,,
CEC-21-3971|MEX|ST_2|Cluster_NA|2021/06/11,,.,1505800011895,Mexico,Nezahualcoyotl,.,Distribucion_Municipio,,
CEC-21-4753|MEX|ST_2|Cluster_NA|2021/09/02,,.,150330001181A,Mexico,Ecatepec de Morelos,Jardines de Morelos 5a Seccion,Distribucion_Colonia,19.6079768,-98.9924088
CEC-21-3430|MEX|ST_2|Cluster_NA|2021/04/26,,.,1505800010473,Mexico,Nezahualcoyotl,.,Distribucion_Municipio,,
CEC-19-0927|MEX|ST_2|Cluster_NA|2019/11/27,,.,1503300014922,Mexico,Ecatepec de Morelos,.,Distribucion_Municipio,,
CEC-21-4630|MEX|ST_2|Cluster_NA|2021/08/20,,.,1505800010581,Mexico,Nezahualcoyotl,.,Distribucion_Municipio,,
CEC-20-1254|MEX|ST_2|Cluster_NA|2020/08/24,,.,1505800011984,Mexico,Nezahualcoyotl,Juarez Pantitlan,Distribucion_Colonia,19.4118165,-99.0559478
CEC-19-0297|MEX|ST_2|Cluster_NA|2019/09/13,,.,1502401010066,Mexico,Chimalhuacan,.,Distribucion_Municipio,,
CEC-21-4860|MEX|ST_2|Cluster_NA|2021/09/15,,.,1505800010308,Mexico,Nezahualcoyotl,Ampliacion General Jose Vicente Villada Poniente,Distribucion_Municipio,,
CEC-20-1437|MEX|ST_2|Cluster_NA|2020/09/14,,54695,1503500030572,Mexico,Huehuetoca,Santa Teresa 3 y 3 Bis,Distribucion_Municipio,,
CEC-22-9314|MEX|ST_2|Cluster_NA|2022/10/17,,.,1503300010262,Mexico,Ecatepec de Morelos,San Andres de la Canada,Distribucion_Colonia,19.5707904,-99.0929329
CEC-21-4298|MEX|ST_2|Cluster_NA|2021/07/13,,.,150330001007A,Mexico,Ecatepec de Morelos,Tulpetlac,Distribucion_Colonia,19.5733951,-99.0502787
CEC-21-4350|MEX|ST_2|Cluster_78|2021/07/19,,.,1509900141597,Mexico,Tecamac,.,Distribucion_Municipio,,
CEC-22-8289|MEX|ST_2|Cluster_NA|2022/07/13,,.,1512200010512,Mexico,Valle de Chalco Solidaridad,.,Distribucion_Municipio,,
CEC-19-0612|MEX|ST_2|Cluster_NA|2019/10/18,,.,1505800010539,Mexico,Nezahualcoyotl,.,Distribucion_Municipio,,
CEC-19-0009|MEX|ST_2|Cluster_NA|2019/07/17,,.,150600001058A,Mexico,Nicolas Romero,.,Distribucion_Municipio,,
CEC-22-9532|MEX|ST_2|Cluster_NA|2022/11/08,,.,1503700240469,Mexico,Ixtapaluca,Geovillas Ixtapaluca 2000,Distribucion_Colonia,19.3211812,-98.9377658
CEC-20-1367|MEX|ST_2|Cluster_NA|2020/09/07,,.,1512100012244,Mexico,Cuautitlan Izcalli,El Cerrito,Distribucion_Colonia,19.6700636,-99.1968835
CEC-21-5103|MEX|ST_2|Cluster_NA|2021/10/04,,.,1501300011624,Mexico,Atizapan de Zaragoza,.,Distribucion_Municipio,,
CEC-20-1182|MEX|ST_2|Cluster_NA|2020/08/17,,.,1503700710365,Mexico,Ixtapaluca,.,Distribucion_Municipio,,
CEC-21-4027|MEX|ST_2|Cluster_NA|2021/06/17,,.,150990008153A,Mexico,Tecamac,Villa del Real,Distribucion_Colonia,19.6848884,-98.9779634
CEC-22-9512|MEX|ST_2|Cluster_NA|2022/11/07,,.,151040001132A,Mexico,Tlalnepantla de Baz,.,Distribucion_Municipio,,
CEC-19-0333|MEX|ST_2|Cluster_NA|2019/09/19,,.,1505800010740,Mexico,Nezahualcoyotl,.,Distribucion_Municipio,,
CEC-22-9122|MEX|ST_2|Cluster_NA|2022/09/26,,.,1500100010339,Mexico,Zumpango,.,Fallback_Estado,,
CEC-22-9411|MEX|ST_2|Cluster_121|2022/10/26,121.0,56095,15102005A,Mexico,Tepetlaoxtoc,Santiago,Distribucion_Colonia,19.5604224,-98.8441765
CEC-22-7841|MEX|ST_2|Cluster_NA|2022/06/06,,.,150990016114A,Mexico,Tecamac,Los Heroes Tecamac,Distribucion_Colonia,19.630693,-99.0395327
CEC-19-0001|MEX|ST_1|Cluster_NA|2019/07/17,,.,0900200010947,Ciudad de Mexico,Alvaro Obregon,.,Distribucion_Municipio,,
CEC-22-8385|MEX|ST_1|Cluster_NA|2022/07/20,,02125,0900300011514,Ciudad de Mexico,Azcapotzalco,San Martin Xochinahuac,Distribucion_Colonia,19.4988067,-99.1921922
CEC-19-0296|MEX|ST_1|Cluster_NA|2019/09/13,,.,0900800010071,Ciudad de Mexico,Gustavo A. Madero,.,Distribucion_Municipio,,
CEC-22-8581|MEX|ST_1|Cluster_NA|2022/08/10,,.,0901700010579,Ciudad de Mexico,Xochimilco,.,Distribucion_Municipio,,
CEC-22-7869|MEX|ST_1|Cluster_NA|2022/06/07,,.,090040001041A,Ciudad de Mexico,Benito Juarez_CDMX,Moderna,Distribucion_Colonia,19.3953179,-99.1344949
CEC-19-0633|MEX|ST_1|Cluster_NA|2019/10/23,,.,0900900240191,Ciudad de Mexico,Iztacalco,.,Distribucion_Municipio,,
CEC-19-0212|MEX|ST_1|Cluster_NA|2019/09/06,,.,0900500011398,Ciudad de Mexico,Coyoacan,.,Distribucion_Municipio,,
CEC-19-0262|MEX|ST_1|Cluster_NA|2019/09/11,,.,0901000010277,Ciudad de Mexico,Iztapalapa,.,Distribucion_Municipio,,
CEC-19-0263|MEX|ST_1|Cluster_NA|2019/09/11,,.,0900400200246,Ciudad de Mexico,Benito Juarez_CDMX,.,Distribucion_Municipio,,
CEC-22-8176|MEX|ST_1|Cluster_NA|2022/07/04,,.,0900500011805,Ciudad de Mexico,Coyoacan,Culhuacan CTM Seccion X,Distribucion_Colonia,19.3185851,-99.1047601
CEC-19-0191|MEX|ST_1|Cluster_NA|2019/09/04,,.,0900900330488,Ciudad de Mexico,Iztacalco,.,Distribucion_Municipio,,
CEC-19-0588|MEX|ST_1|Cluster_NA|2019/10/16,,.,0901000010347,Ciudad de Mexico,Iztapalapa,.,Distribucion_Municipio,,
CEC-21-3026|MEX|ST_1|Cluster_NA|2021/03/22,,02125,0900300011514,Ciudad de Mexico,Azcapotzalco,San Martin Xochinahuac,Distribucion_Colonia,19.4988067,-99.1921922
CEC-20-1539|MEX|ST_1|Cluster_NA|2020/09/28,,.,0901000011519,Ciudad de Mexico,Iztapalapa,Santiago Acahualtepec,Distribucion_Colonia,19.3485501,-99.0136191
CEC-19-0042|MEX|ST_1|Cluster_NA|2019/07/24,,.,0901000010440,Ciudad de Mexico,Iztapalapa,.,Distribucion_Municipio,,
CEC-19-0649|MEX|ST_1|Cluster_NA|2019/10/23,,.,090080001025A,Ciudad de Mexico,Gustavo A. Madero,.,Distribucion_Municipio,,
CEC-22-8764|MEX|ST_1|Cluster_NA|2022/08/26,,.,0900900290469,Ciudad de Mexico,Iztacalco,.,Distribucion_Municipio,,
CEC-19-0223|MEX|ST_1|Cluster_NA|2019/09/06,,.,0901000010741,Ciudad de Mexico,Iztapalapa,.,Distribucion_Municipio,,
CEC-19-0796|MEX|ST_1|Cluster_NA|2019/11/13,,.,0901000010756,Ciudad de Mexico,Iztapalapa,.,Distribucion_Municipio,,
CEC-20-1633|MEX|ST_1|Cluster_NA|2020/10/07,,.,0900300010520,Ciudad de Mexico,Azcapotzalco,.,Distribucion_Municipio,,
CEC-19-0219|MEX|ST_1|Cluster_NA|2019/09/06,,.,0901000010775,Ciudad de Mexico,Iztapalapa,.,Distribucion_Municipio,,
CEC-20-1408|MEX|ST_1|Cluster_NA|2020/09/10,,.,090100001092A,Ciudad de Mexico,Iztapalapa,.,Distribucion_Municipio,,
CEC-20-1019|MEX|ST_1|Cluster_NA|2020/07/27,,15940,0901600010374,Ciudad de Mexico,Venustiano Carranza,Morelos,Distribucion_Colonia,19.4396722,-99.1181152
CEC-22-9869|MEX|ST_1|Cluster_NA|2022/12/14,,.,0901100010325,Ciudad de Mexico,La Magdalena Contreras,El Tanque,Distribucion_Colonia,19.3246469,-99.2502854
CEC-19-0163|MEX|ST_1|Cluster_NA|2019/08/30,,.,0901000010968,Ciudad de Mexico,Iztapalapa,.,Distribucion_Municipio,,
CEC-20-1040|MEX|ST_1|Cluster_NA|2020/07/29,,.,0900700010958,Ciudad de Mexico,Cuauhtemoc,.,Distribucion_Municipio,,
CEC-19-0817|MEX|ST_1|Cluster_NA|2019/11/14,,.,0900300011618,Ciudad de Mexico,Azcapotzalco,Santo Domingo,Distribucion_Colonia,19.4886382,-99.191497
CEC-21-4385|MEX|ST_1|Cluster_NA|2021/07/20,,07329,0900800010029,Ciudad de Mexico,Gustavo A. Madero,Ticoman,Distribucion_Colonia,19.5364806,-99.1413783
CEC-20-1398|MEX|ST_1|Cluster_NA|2020/09/10,,.,0900500012108,Ciudad de Mexico,Coyoacan,.,Distribucion_Municipio,,
CEC-21-5190|MEX|ST_1|Cluster_NA|2021/10/11,,.,090090115,Ciudad de Mexico,Iztacalco,.,Distribucion_Municipio,,
CEC-21-4372|MEX|ST_1|Cluster_NA|2021/07/20,,04350,0900500011190,Ciudad de Mexico,Coyoacan,Copilco,Distribucion_Colonia,19.3360586,-99.1770655
CEC-21-5354|MEX|ST_1|Cluster_NA|2021/10/26,,01048,0900200010805,Ciudad de Mexico,Alvaro Obregon,Las Aguilas,Distribucion_Colonia,19.3450028,-99.232351
CEC-21-5893|MEX|ST_1|Cluster_NA|2021/12/10,,15940,0901600010374,Ciudad de Mexico,Venustiano Carranza,Morelos,Distribucion_Colonia,19.4396722,-99.1181152
CEC-21-3785|MEX|ST_1|Cluster_NA|2021/05/25,,.,0901000011824,Ciudad de Mexico,Iztapalapa,.,Distribucion_Municipio,,
CEC-21-3149|MEX|ST_1|Cluster_NA|2021/03/29,,13209,0901400010596,Ciudad de Mexico,Tlahuac,Zapotitlan,Distribucion_Colonia,19.2966699,-99.0342124
CEC-19-0458|MEX|ST_1|Cluster_NA|2019/10/07,,.,0901500010803,Ciudad de Mexico,Tlalpan,.,Distribucion_Municipio,,
CEC-22-8562|MEX|ST_1|Cluster_NA|2022/08/11,,.,090120027230A,Ciudad de Mexico,Miguel Hidalgo,Popotla,Distribucion_Colonia,19.4528837,-99.1754969
CEC-21-2700|MEX|ST_1|Cluster_NA|2021/02/18,,15940,0901600010374,Ciudad de Mexico,Venustiano Carranza,Morelos,Distribucion_Colonia,19.4396722,-99.1181152
CEC-22-7860|MEX|ST_1|Cluster_NA|2022/06/07,,.,0900800010353,Ciudad de Mexico,Gustavo A. Madero,Acueducto de Guadalupe,Distribucion_Colonia,19.4889617,-99.1171639
CEC-19-0487|MEX|ST_1|Cluster_NA|2019/10/09,,.,0901600011368,Ciudad de Mexico,Venustiano Carranza,.,Distribucion_Municipio,,
CEC-22-9284|MEX|ST_1|Cluster_NA|2022/10/13,,02125,0900300011514,Ciudad de Mexico,Azcapotzalco,San Martin Xochinahuac,Distribucion_Colonia,19.4988067,-99.1921922
CEC-19-0024|MEX|ST_1|Cluster_NA|2019/07/19,,.,0900500010953,Ciudad de Mexico,Coyoacan,.,Distribucion_Municipio,,
CEC-19-0925|MEX|ST_1|Cluster_NA|2019/11/27,,.,0901000011345,Ciudad de Mexico,Iztapalapa,.,Distribucion_Municipio,,
CEC-19-0072|MEX|ST_1|Cluster_NA|2019/07/24,,.,0900800010349,Ciudad de Mexico,Gustavo A. Madero,.,Distribucion_Municipio,,
CEC-19-0189|MEX|ST_1|Cluster_213|2019/09/04,,.,0901400010168,Ciudad de Mexico,Tlahuac,.,Distribucion_Municipio,,
CEC-19-0613|MEX|ST_1|Cluster_213|2019/10/18,,.,0901400010971,Ciudad de Mexico,Tlahuac,.,Distribucion_Municipio,,
CEC-21-4300|MEX|ST_1|Cluster_NA|2021/07/12,,.,0901400010416,Ciudad de Mexico,Tlahuac,Las Arboledas,Distribucion_Colonia,19.3042082,-99.0538879
CEC-21-3229|MEX|ST_1|Cluster_NA|2021/04/09,,04270,0900500013214,Ciudad de Mexico,Coyoacan,Santa Martha del Sur Quetzalcoatl,Distribucion_Colonia,19.3373226,-99.127685
CEC-22-6565|MEX|ST_1|Cluster_205|2022/02/21,,02110,0900300011764,Ciudad de Mexico,Azcapotzalco,San Pablo Xalpa,Distribucion_Colonia,19.5050158,-99.1882611
CEC-19-0630|MEX|ST_1|Cluster_NA|2019/10/23,,.,090070001497A,Ciudad de Mexico,Cuauhtemoc,.,Distribucion_Municipio,,
CEC-22-6680|MEX|ST_1|Cluster_NA|2022/03/02,,10730,0901100010378,Ciudad de Mexico,La Magdalena Contreras,Santa Teresa,Distribucion_Colonia,19.3100686,-99.2290272
CEC-19-0629|MEX|ST_1|Cluster_NA|2019/10/23,,.,0900700011104,Ciudad de Mexico,Cuauhtemoc,.,Distribucion_Municipio,,
CEC-20-1250|MEX|ST_1|Cluster_NA|2020/08/24,,.,0900700012174,Ciudad de Mexico,Cuauhtemoc,Atlampa,Distribucion_Colonia,19.4567845,-99.1568752
CEC-21-5929|MEX|ST_1|Cluster_NA|2021/12/14,,01048,0900200010805,Ciudad de Mexico,Alvaro Obregon,Las Aguilas,Distribucion_Colonia,19.3450028,-99.232351
CEC-19-0044|MEX|ST_1|Cluster_NA|2019/07/24,,.,0901200010619,Ciudad de Mexico,Miguel Hidalgo,.,Distribucion_Municipio,,
CEC-22-6522|MEX|ST_1|Cluster_NA|2022/02/18,,.,0900700010500,Ciudad de Mexico,Cuauhtemoc,Roma Norte,Distribucion_Colonia,19.4183227,-99.1625655
CEC-22-8038|MEX|ST_1|Cluster_NA|2022/06/22,,.,0901400010882,Ciudad de Mexico,Tlahuac,.,Distribucion_Municipio,,
CEC-22-7884|MEX|ST_1|Cluster_NA|2022/06/08,,15120,0901600010514,Ciudad de Mexico,Venustiano Carranza,Candelaria de los Patos FOVISSSTE,Distribucion_Municipio,,
CEC-19-0146|MEX|ST_1|Cluster_NA|2019/08/28,,.,090050001060A,Ciudad de Mexico,Coyoacan,.,Distribucion_Municipio,,
CEC-20-2138|MEX|ST_1|Cluster_NA|2020/11/30,,09160,090100001174A,Ciudad de Mexico,Iztapalapa,Solidaridad,Distribucion_Colonia,19.3727515,-99.0065061
CEC-19-0278|MEX|ST_1|Cluster_NA|2019/09/12,,.,0901200011123,Ciudad de Mexico,Miguel Hidalgo,.,Distribucion_Municipio,,
CEC-20-2014|MEX|ST_1|Cluster_NA|2020/11/13,,.,0901400010990,Ciudad de Mexico,Tlahuac,.,Distribucion_Municipio,,
CEC-19-0058|MEX|ST_1|Cluster_NA|2019/07/24,,.,0900400010212,Ciudad de Mexico,Benito Juarez_CDMX,.,Distribucion_Municipio,,
CEC-20-1232|MEX|ST_1|Cluster_NA|2020/08/21,,05249,0900600010024,Ciudad de Mexico,Cuajimalpa de Morelos,Jardines de la Palma,Distribucion_Colonia,19.3707509,-99.281087
CEC-19-0524|MEX|ST_1|Cluster_NA|2019/10/11,,.,0900400010119,Ciudad de Mexico,Benito Juarez_CDMX,.,Distribucion_Municipio,,
CEC-20-2156|MEX|ST_1|Cluster_NA|2020/11/30,,.,0901700010348,Ciudad de Mexico,Xochimilco,.,Distribucion_Municipio,,
CEC-21-5717|MEX|ST_1|Cluster_NA|2021/11/29,,.,090100001224A,Ciudad de Mexico,Iztapalapa,.,Distribucion_Municipio,,
CEC-19-0974|MEX|ST_1|Cluster_NA|2019/12/04,,.,0900800010565,Ciudad de Mexico,Gustavo A. Madero,.,Distribucion_Municipio,,
CEC-21-5613|MEX|ST_1|Cluster_NA|2021/11/22,,.,0901700011168,Ciudad de Mexico,Xochimilco,Santa Maria Nativitas,Distribucion_Colonia,19.244893,-99.0925368
CEC-19-0999|MEX|ST_1|Cluster_NA|2019/12/09,,.,0900700011246,Ciudad de Mexico,Cuauhtemoc,.,Distribucion_Municipio,,
CEC-20-1319|MEX|ST_1|Cluster_NA|2020/09/01,,02109,0900300010357,Ciudad de Mexico,Azcapotzalco,Manuel Rivera Anaya CROC 1,Distribucion_Colonia,19.5102439,-99.193275
CEC-21-4662|MEX|ST_1|Cluster_NA|2021/08/23,,.,0901000012023,Ciudad de Mexico,Iztapalapa,.,Distribucion_Municipio,,
CEC-22-8104|MEX|ST_1|Cluster_NA|2022/06/28,,09160,090100001174A,Ciudad de Mexico,Iztapalapa,Solidaridad,Distribucion_Colonia,19.3727515,-99.0065061
CEC-19-0885|MEX|ST_1|Cluster_NA|2019/11/22,,.,0901200011458,Ciudad de Mexico,Miguel Hidalgo,.,Distribucion_Municipio,,
CEC-19-0059|MEX|ST_1|Cluster_NA|2019/07/24,,.,0900300010408,Ciudad de Mexico,Azcapotzalco,.,Distribucion_Municipio,,
CEC-22-7150|MEX|ST_1|Cluster_NA|2022/04/12,,.,0900700010765,Ciudad de Mexico,Cuauhtemoc,Obrera,Distribucion_Colonia,19.4132002,-99.1440487
CEC-19-0085|MEX|ST_1|Cluster_NA|2019/08/21,,.,0900400010195,Ciudad de Mexico,Benito Juarez_CDMX,.,Distribucion_Municipio,,
CEC-19-0967|MEX|ST_1|Cluster_NA|2019/12/04,,.,0901200012371,Ciudad de Mexico,Miguel Hidalgo,.,Distribucion_Municipio,,
CEC-20-2034|MEX|ST_1|Cluster_NA|2020/11/18,,.,0901000011472,Ciudad de Mexico,Iztapalapa,.,Distribucion_Municipio,,
CEC-20-2096|MEX|ST_1|Cluster_NA|2020/11/24,,.,0900900240581,Ciudad de Mexico,Iztacalco,.,Distribucion_Municipio,,
CEC-19-0981|MEX|ST_1|Cluster_NA|2019/12/04,,.,0900700011706,Ciudad de Mexico,Cuauhtemoc,.,Distribucion_Municipio,,
CEC-22-6873|MEX|ST_1|Cluster_NA|2022/03/22,,14335,0901500010540,Ciudad de Mexico,Tlalpan,Villa del Puente,Distribucion_Colonia,19.2961474,-99.1064693
CEC-19-0780|MEX|ST_1|Cluster_NA|2019/11/11,,.,0901500011248,Ciudad de Mexico,Tlalpan,Tlalpan Centro,Distribucion_Colonia,19.2838288,-99.1701115
CEC-22-8426|MEX|ST_1|Cluster_NA|2022/08/01,,.,0901000010987,Ciudad de Mexico,Iztapalapa,Santa Martha Acatitla,Distribucion_Colonia,19.3627604,-99.0112355
CEC-19-0691|MEX|ST_1|Cluster_NA|2019/10/30,,.,090120001159A,Ciudad de Mexico,Miguel Hidalgo,.,Distribucion_Municipio,,
CEC-19-0663|MEX|ST_1|Cluster_NA|2019/10/25,,.,0901200010892,Ciudad de Mexico,Miguel Hidalgo,.,Distribucion_Municipio,,
CEC-19-0882|MEX|ST_1|Cluster_NA|2019/11/22,,.,0900300011798,Ciudad de Mexico,Azcapotzalco,.,Distribucion_Municipio,,
CEC-22-7654|MEX|ST_1|Cluster_NA|2022/05/24,,15940,0901600010374,Ciudad de Mexico,Venustiano Carranza,Morelos,Distribucion_Colonia,19.4396722,-99.1181152
CEC-20-1894|MEX|ST_1|Cluster_NA|2020/10/30,,.,0900500012269,Ciudad de Mexico,Coyoacan,.,Distribucion_Municipio,,
CEC-19-0397|MEX|ST_1|Cluster_NA|2019/09/27,,.,0900500012362,Ciudad de Mexico,Coyoacan,.,Distribucion_Municipio,,
CEC-22-8154|MEX|ST_1|Cluster_NA|2022/06/30,,15940,0901600010374,Ciudad de Mexico,Venustiano Carranza,Morelos,Distribucion_Colonia,19.4396722,-99.1181152
CEC-21-2388|MEX|ST_1|Cluster_NA|2021/01/15,,.,090080001018A,Ciudad de Mexico,Gustavo A. Madero,La Pastora,Distribucion_Colonia,19.5239098,-99.1379032
CEC-19-0129|MEX|ST_1|Cluster_NA|2019/08/28,,.,0900400010227,Ciudad de Mexico,Benito Juarez_CDMX,.,Distribucion_Municipio,,
CEC-19-0696|MEX|ST_1|Cluster_NA|2019/10/30,,.,0900400010208,Ciudad de Mexico,Benito Juarez_CDMX,.,Distribucion_Municipio,,
CEC-19-0053|MEX|ST_1|Cluster_NA|2019/07/24,,.,090070001294A,Ciudad de Mexico,Cuauhtemoc,.,Distribucion_Municipio,,
CEC-19-0687|MEX|ST_1|Cluster_NA|2019/10/30,,.,0901500010358,Ciudad de Mexico,Tlalpan,.,Distribucion_Municipio,,
CEC-22-6429|MEX|ST_1|Cluster_NA|2022/02/10,,.,0900700010500,Ciudad de Mexico,Cuauhtemoc,Roma Norte,Distribucion_Colonia,19.4183227,-99.1625655
CEC-19-0204|MEX|ST_1|Cluster_NA|2019/09/06,,.,0901200011547,Ciudad de Mexico,Miguel Hidalgo,.,Distribucion_Municipio,,
CEC-19-0914|MEX|ST_1|Cluster_NA|2019/11/27,,.,0900700015855,Ciudad de Mexico,Cuauhtemoc,.,Distribucion_Municipio,,
CEC-20-1448|MEX|ST_1|Cluster_NA|2020/09/15,,.,0900200010383,Ciudad de Mexico,Alvaro Obregon,Lomas de Guadalupe,Distribucion_Colonia,19.3423868,-99.2436148
CEC-21-3501|MEX|ST_1|Cluster_NA|2021/04/30,,13209,0901400010596,Ciudad de Mexico,Tlahuac,Zapotitlan,Distribucion_Colonia,19.2966699,-99.0342124
CEC-19-0590|MEX|ST_1|Cluster_NA|2019/10/16,,.,0901000011203,Ciudad de Mexico,Iztapalapa,.,Distribucion_Municipio,,
CEC-21-2595|MEX|ST_1|Cluster_NA|2021/02/08,,09160,090100001174A,Ciudad de Mexico,Iztapalapa,Solidaridad,Distribucion_Colonia,19.3727515,-99.0065061
CEC-20-1999|MEX|ST_1|Cluster_NA|2020/11/11,,.,090080001025A,Ciudad de Mexico,Gustavo A. Madero,San Bartolo Atepehuacan,Distribucion_Colonia,19.4933278,-99.1413426
CEC-19-1032|MEX|ST_1|Cluster_NA|2019/12/11,,.,0900700011509,Ciudad de Mexico,Cuauhtemoc,.,Distribucion_Municipio,,
CEC-21-5407|MEX|ST_1|Cluster_NA|2021/10/29,,.,0901500010945,Ciudad de Mexico,Tlalpan,La Joya,Distribucion_Colonia,19.2776447,-99.1424798
CEC-19-0076|MEX|ST_1|Cluster_NA|2019/08/21,,.,0901000011843,Ciudad de Mexico,Iztapalapa,.,Distribucion_Municipio,,
CEC-19-0827|MEX|ST_1|Cluster_NA|2019/11/15,,.,090080001032A,Ciudad de Mexico,Gustavo A. Madero,.,Distribucion_Municipio,,
CEC-19-0552|MEX|ST_1|Cluster_NA|2019/10/16,,.,0901000010050,Ciudad de Mexico,Iztapalapa,.,Distribucion_Municipio,,
CEC-21-5066|MEX|ST_1|Cluster_NA|2021/10/01,,.,0900700014429,Ciudad de Mexico,Cuauhtemoc,Centro (Area 4),Distribucion_Municipio,,
CEC-21-3196|MEX|ST_1|Cluster_NA|2021/04/06,,15940,0901600010374,Ciudad de Mexico,Venustiano Carranza,Morelos,Distribucion_Colonia,19.4396722,-99.1181152
CEC-19-0564|MEX|ST_1|Cluster_NA|2019/10/16,,.,0900800010029,Ciudad de Mexico,Gustavo A. Madero,.,Distribucion_Municipio,,
CEC-20-1380|MEX|ST_1|Cluster_NA|2020/09/08,,.,090040157,Ciudad de Mexico,Benito Juarez_CDMX,Narvarte Oriente,Distribucion_Colonia,19.3932666,-99.1502584
CEC-19-0795|MEX|ST_1|Cluster_NA|2019/11/13,,.,0900400010104,Ciudad de Mexico,Benito Juarez_CDMX,.,Distribucion_Municipio,,
CEC-22-8863|MEX|ST_1|Cluster_NA|2022/09/02,,01580,0900200010449,Ciudad de Mexico,Alvaro Obregon,Bosques de Tarango,Distribucion_Municipio,,
CEC-19-0026|MEX|ST_1|Cluster_NA|2019/07/19,,.,090030001008A,Ciudad de Mexico,Azcapotzalco,.,Distribucion_Municipio,,
CEC-19-0187|MEX|ST_1|Cluster_NA|2019/09/04,,.,0901000010597,Ciudad de Mexico,Iztapalapa,.,Distribucion_Municipio,,
CEC-20-1648|MEX|ST_1|Cluster_NA|2020/10/08,,04720,0900500012254,Ciudad de Mexico,Coyoacan,Pedregal del Maurel,Distribucion_Colonia,19.3087764,-99.1753239
CEC-19-0045|MEX|ST_1|Cluster_NA|2019/07/24,,.,0901200011481,Ciudad de Mexico,Miguel Hidalgo,.,Distribucion_Municipio,,
CEC-19-0431|MEX|ST_1|Cluster_NA|2019/10/02,,.,090160001043A,Ciudad de Mexico,Venustiano Carranza,.,Distribucion_Municipio,,
CEC-19-0477|MEX|ST_1|Cluster_NA|2019/10/07,,.,0901000010489,Ciudad de Mexico,Iztapalapa,.,Distribucion_Municipio,,
CEC-19-0993|MEX|ST_1|Cluster_NA|2019/12/09,,.,0900400010301,Ciudad de Mexico,Benito Juarez_CDMX,.,Distribucion_Municipio,,
CEC-19-0716|MEX|ST_1|Cluster_NA|2019/11/01,,.,0900400010299,Ciudad de Mexico,Benito Juarez_CDMX,.,Distribucion_Municipio,,
CEC-20-1406|MEX|ST_1|Cluster_NA|2020/09/10,,.,0901400010740,Ciudad de Mexico,Tlahuac,.,Distribucion_Municipio,,
CEC-19-0023|MEX|ST_1|Cluster_NA|2019/07/19,,.,0900800010033,Ciudad de Mexico,Gustavo A. Madero,.,Distribucion_Municipio,,
CEC-22-6323|MEX|ST_1|Cluster_NA|2022/02/01,,.,0901000011792,Ciudad de Mexico,Iztapalapa,Lomas de Zaragoza,Distribucion_Colonia,19.3584078,-99.0001083
CEC-20-1614|MEX|ST_1|Cluster_NA|2020/10/05,,.,090120001084A,Ciudad de Mexico,Miguel Hidalgo,America,Distribucion_Colonia,19.4037943,-99.2027751
CEC-22-6128|MEX|ST_1|Cluster_NA|2022/01/14,,05349,0900600010109,Ciudad de Mexico,Cuajimalpa de Morelos,Cruz Manca,Distribucion_Colonia,19.3442607,-99.2737787
CEC-22-8851|MEX|ST_1|Cluster_NA|2022/08/31,,.,0901000012216,Ciudad de Mexico,Iztapalapa,.,Distribucion_Municipio,,
CEC-19-0161|MEX|ST_1|Cluster_NA|2019/08/30,,.,0900700012070,Ciudad de Mexico,Cuauhtemoc,.,Distribucion_Municipio,,
CEC-22-7298|MEX|ST_1|Cluster_NA|2022/04/27,,.,0900200010203,Ciudad de Mexico,Alvaro Obregon,Lomas de Becerra,Distribucion_Colonia,19.384865,-99.2010713
CEC-19-0606|MEX|ST_1|Cluster_NA|2019/10/18,,.,090070001209A,Ciudad de Mexico,Cuauhtemoc,.,Distribucion_Municipio,,
CEC-19-0789|MEX|ST_1|Cluster_NA|2019/11/13,,.,0900700012102,Ciudad de Mexico,Cuauhtemoc,.,Distribucion_Municipio,,
CEC-22-8458|MEX|ST_1|Cluster_NA|2022/08/03,,.,0900500012663,Ciudad de Mexico,Coyoacan,San Francisco Culhuacan Barrio de La Magdalena,Distribucion_Municipio,,
CEC-19-0342|MEX|ST_1|Cluster_NA|2019/09/20,,.,0900700010074,Ciudad de Mexico,Cuauhtemoc,.,Distribucion_Municipio,,
CEC-20-2020|MEX|ST_1|Cluster_NA|2020/11/13,,.,0901000011453,Ciudad de Mexico,Iztapalapa,.,Distribucion_Municipio,,
CEC-21-5434|MEX|ST_1|Cluster_NA|2021/11/03,,.,0901200010816,Ciudad de Mexico,Miguel Hidalgo,San Miguel Chapultepec I Seccion,Distribucion_Colonia,19.411038,-99.1857782
CEC-22-8288|MEX|ST_1|Cluster_NA|2022/07/12,,09857,0901000011133,Ciudad de Mexico,Iztapalapa,San Francisco INFONAVIT,Distribucion_Colonia,19.3399289,-99.0828504
CEC-21-4806|MEX|ST_1|Cluster_NA|2021/09/08,,.,090101326,Ciudad de Mexico,Iztapalapa,.,Distribucion_Municipio,,
CEC-19-1008|MEX|ST_1|Cluster_NA|2019/12/09,,.,0900500010281,Ciudad de Mexico,Coyoacan,.,Distribucion_Municipio,,
CEC-22-5994|MEX|ST_1|Cluster_NA|2022/01/04,,.,0900700013717,Ciudad de Mexico,Cuauhtemoc,.,Distribucion_Municipio,,
CEC-19-0917|MEX|ST_1|Cluster_NA|2019/11/27,,.,0900800010550,Ciudad de Mexico,Gustavo A. Madero,.,Distribucion_Municipio,,
CEC-21-3643|MEX|ST_1|Cluster_NA|2021/05/14,,02450,0900300011020,Ciudad de Mexico,Azcapotzalco,Miguel Hidalgo,Distribucion_Colonia,19.4937154,-99.1988243
CEC-19-0459|MEX|ST_1|Cluster_NA|2019/10/07,,.,0901200012441,Ciudad de Mexico,Miguel Hidalgo,.,Distribucion_Municipio,,
CEC-21-4306|MEX|ST_1|Cluster_NA|2021/07/14,,.,0901000012199,Ciudad de Mexico,Iztapalapa,.,Distribucion_Municipio,,
CEC-19-0476|MEX|ST_1|Cluster_NA|2019/10/07,,.,0901000012269,Ciudad de Mexico,Iztapalapa,.,Distribucion_Municipio,,
CEC-19-0931|MEX|ST_1|Cluster_NA|2019/11/27,,.,090160001050A,Ciudad de Mexico,Venustiano Carranza,.,Distribucion_Municipio,,
CEC-21-2958|MEX|ST_1|Cluster_NA|2021/03/16,,04350,0900500011311,Ciudad de Mexico,Coyoacan,Integracion Latinoamericana,Distribucion_Colonia,19.3383767,-99.1790712
CEC-20-2203|MEX|ST_1|Cluster_NA|2020/12/04,,14130,0901500010714,Ciudad de Mexico,Tlalpan,"Lic. Emilio Portes Gil ""PEMEX""",Distribucion_Municipio,,
CEC-19-0815|MEX|ST_1|Cluster_NA|2019/11/13,,.,0901000011684,Ciudad de Mexico,Iztapalapa,.,Distribucion_Municipio,,
CEC-22-8162|MEX|ST_1|Cluster_84|2022/07/01,,.,0901100010344,Ciudad de Mexico,La Magdalena Contreras,Las Cruces,Distribucion_Colonia,19.3198351,-99.254654
CEC-19-0496|MEX|ST_1|Cluster_NA|2019/10/09,,.,0900700010816,Ciudad de Mexico,Cuauhtemoc,.,Distribucion_Municipio,,
CEC-19-0426|MEX|ST_1|Cluster_NA|2019/10/02,,.,0900700010820,Ciudad de Mexico,Cuauhtemoc,.,Distribucion_Municipio,,
CEC-19-0975|MEX|ST_1|Cluster_NA|2019/12/04,,.,0900400010072,Ciudad de Mexico,Benito Juarez_CDMX,.,Distribucion_Municipio,,
CEC-22-7514|MEX|ST_1|Cluster_NA|2022/05/16,,02125,0900300011514,Ciudad de Mexico,Azcapotzalco,San Martin Xochinahuac,Distribucion_Colonia,19.4988067,-99.1921922
CEC-19-0088|MEX|ST_1|Cluster_NA|2019/08/21,,.,0900900290473,Ciudad de Mexico,Iztacalco,.,Distribucion_Municipio,,
CEC-19-0727|MEX|ST_1|Cluster_NA|2019/11/06,,.,0901600010590,Ciudad de Mexico,Venustiano Carranza,.,Distribucion_Municipio,,
CEC-20-1883|MEX|ST_1|Cluster_NA|2020/10/29,,15940,0901600010374,Ciudad de Mexico,Venustiano Carranza,Morelos,Distribucion_Colonia,19.4396722,-99.1181152
CEC-22-9790|MEX|ST_1|Cluster_NA|2022/12/06,,.,0901000012201,Ciudad de Mexico,Iztapalapa,.,Distribucion_Municipio,,
CEC-20-1951|MEX|ST_1|Cluster_NA|2020/11/05,,.,0901000011222,Ciudad de Mexico,Iztapalapa,.,Distribucion_Municipio,,
CEC-20-1773|MEX|ST_1|Cluster_NA|2020/10/20,,.,0900600010221,Ciudad de Mexico,Cuajimalpa de Morelos,San Mateo Tlaltenango,Distribucion_Colonia,19.3419761,-99.2797931
CEC-19-0755|MEX|ST_1|Cluster_NA|2019/11/08,,.,0900400010212,Ciudad de Mexico,Benito Juarez_CDMX,.,Distribucion_Municipio,,
CEC-19-0756|MEX|ST_1|Cluster_NA|2019/11/08,,.,0900800010495,Ciudad de Mexico,Gustavo A. Madero,.,Distribucion_Municipio,,
CEC-21-3500|MEX|ST_1|Cluster_NA|2021/04/29,,.,0901000010991,Ciudad de Mexico,Iztapalapa,.,Distribucion_Municipio,,
CEC-19-0056|MEX|ST_1|Cluster_NA|2019/07/24,,.,0900700011443,Ciudad de Mexico,Cuauhtemoc,.,Distribucion_Municipio,,
CEC-19-0475|MEX|ST_1|Cluster_NA|2019/10/07,,.,0901600011160,Ciudad de Mexico,Venustiano Carranza,.,Distribucion_Municipio,,
CEC-19-0101|MEX|ST_1|Cluster_NA|2019/08/23,,.,0901000012042,Ciudad de Mexico,Iztapalapa,.,Distribucion_Municipio,,
CEC-21-4813|MEX|ST_1|Cluster_NA|2021/09/13,,.,0901000010718,Ciudad de Mexico,Iztapalapa,.,Distribucion_Municipio,,
CEC-20-1987|MEX|ST_1|Cluster_NA|2020/11/11,,.,0901000011951,Ciudad de Mexico,Iztapalapa,.,Distribucion_Municipio,,
CEC-19-0010|MEX|ST_1|Cluster_NA|2019/07/17,,.,0900500011307,Ciudad de Mexico,Coyoacan,.,Distribucion_Municipio,,
CEC-22-9641|MEX|ST_1|Cluster_NA|2022/11/22,,.,0901000011044,Ciudad de Mexico,Iztapalapa,.,Distribucion_Municipio,,
CEC-21-3007|MEX|ST_1|Cluster_NA|2021/03/18,,09577,0901000010205,Ciudad de Mexico,Iztapalapa,Fuerte de Loreto,Distribucion_Colonia,19.3669452,-99.0303471
CEC-19-0946|MEX|ST_1|Cluster_NA|2019/11/29,,.,090070001351A,Ciudad de Mexico,Cuauhtemoc,.,Distribucion_Municipio,,
CEC-19-0887|MEX|ST_1|Cluster_NA|2019/11/22,,.,0900700013558,Ciudad de Mexico,Cuauhtemoc,.,Distribucion_Municipio,,
CEC-22-7576|MEX|ST_1|Cluster_NA|2022/05/18,,07329,0900800010029,Ciudad de Mexico,Gustavo A. Madero,Ticoman,Distribucion_Colonia,19.5364806,-99.1413783
CEC-19-0659|MEX|ST_1|Cluster_NA|2019/10/23,,.,0900500013074,Ciudad de Mexico,Coyoacan,.,Distribucion_Municipio,,
CEC-20-1364|MEX|ST_1|Cluster_NA|2020/09/07,,.,0901000010845,Ciudad de Mexico,Iztapalapa,.,Distribucion_Municipio,,
CEC-22-7876|MEX|ST_1|Cluster_NA|2022/06/07,,.,090100001128A,Ciudad de Mexico,Iztapalapa,Xalpa,Distribucion_Colonia,19.3361405,-99.0188572
CEC-20-2018|MEX|ST_1|Cluster_NA|2020/11/13,,.,0901000010722,Ciudad de Mexico,Iztapalapa,.,Distribucion_Municipio,,
CEC-19-0554|MEX|ST_1|Cluster_NA|2019/10/16,,.,090070001426A,Ciudad de Mexico,Cuauhtemoc,.,Distribucion_Municipio,,
CEC-19-0406|MEX|ST_1|Cluster_NA|2019/09/27,,.,0901000012362,Ciudad de Mexico,Iztapalapa,.,Distribucion_Municipio,,
CEC-22-9313|MEX|ST_1|Cluster_NA|2022/10/17,,02450,0900300011020,Ciudad de Mexico,Azcapotzalco,Miguel Hidalgo,Distribucion_Colonia,19.4937154,-99.1988243
CEC-19-0972|MEX|ST_1|Cluster_NA|2019/12/04,,.,0900800010527,Ciudad de Mexico,Gustavo A. Madero,.,Distribucion_Municipio,,
CEC-22-8762|MEX|ST_1|Cluster_NA|2022/08/24,,.,090040001034A,Ciudad de Mexico,Benito Juarez_CDMX,.,Distribucion_Municipio,,
CEC-19-0495|MEX|ST_1|Cluster_NA|2019/10/09,,.,0900700015431,Ciudad de Mexico,Cuauhtemoc,.,Distribucion_Municipio,,
CEC-22-9250|MEX|ST_1|Cluster_NA|2022/10/07,,.,0900900290609,Ciudad de Mexico,Iztacalco,Agricola Pantitlan,Distribucion_Colonia,19.409865,-99.0666396
CEC-21-5099|MEX|ST_1|Cluster_NA|2021/10/05,,09170,0901000012358,Ciudad de Mexico,Iztapalapa,La Colmena,Distribucion_Colonia,19.3678062,-99.0010104
CEC-20-2217|MEX|ST_1|Cluster_NA|2020/12/07,,04350,0900500011190,Ciudad de Mexico,Coyoacan,Copilco,Distribucion_Colonia,19.3360586,-99.1770655
CEC-21-3321|MEX|ST_1|Cluster_NA|2021/04/15,,13209,0901400010596,Ciudad de Mexico,Tlahuac,Zapotitlan,Distribucion_Colonia,19.2966699,-99.0342124
CEC-19-0449|MEX|ST_1|Cluster_NA|2019/10/04,,.,0900800010423,Ciudad de Mexico,Gustavo A. Madero,.,Distribucion_Municipio,,
CEC-20-2016|MEX|ST_1|Cluster_NA|2020/11/13,,.,0900500011896,Ciudad de Mexico,Coyoacan,.,Distribucion_Municipio,,
CEC-21-2993|MEX|ST_1|Cluster_NA|2021/03/18,,.,0900800010387,Ciudad de Mexico,Gustavo A. Madero,Santa Rosa,Distribucion_Colonia,19.4740027,-99.1255168
CEC-21-5017|MEX|ST_1|Cluster_NA|2021/09/27,,.,0901000011114,Ciudad de Mexico,Iztapalapa,.,Distribucion_Municipio,,
CEC-22-8496|MEX|ST_1|Cluster_NA|2022/08/04,,.,0901000011078,Ciudad de Mexico,Iztapalapa,.,Distribucion_Municipio,,
CEC-21-5050|MEX|ST_1|Cluster_NA|2021/09/30,,.,0901000011190,Ciudad de Mexico,Iztapalapa,.,Distribucion_Municipio,,
CEC-19-0714|MEX|ST_1|Cluster_NA|2019/11/01,,.,0900800010226,Ciudad de Mexico,Gustavo A. Madero,.,Distribucion_Municipio,,
CEC-22-8724|MEX|ST_1|Cluster_NA|2022/08/22,,.,0901700011026,Ciudad de Mexico,Xochimilco,.,Distribucion_Municipio,,
CEC-22-8767|MEX|ST_1|Cluster_NA|2022/08/25,,.,0901000011631,Ciudad de Mexico,Iztapalapa,.,Distribucion_Municipio,,
CEC-19-0505|MEX|ST_1|Cluster_NA|2019/10/09,,.,0900700012634,Ciudad de Mexico,Cuauhtemoc,.,Distribucion_Municipio,,
CEC-21-2657|MEX|ST_1|Cluster_NA|2021/02/15,,.,0901000011330,Ciudad de Mexico,Iztapalapa,Leyes de Reforma 3a Seccion,Distribucion_Colonia,19.3775483,-99.0695849
CEC-19-0048|MEX|ST_1|Cluster_NA|2019/07/24,,.,0901200010816,Ciudad de Mexico,Miguel Hidalgo,.,Distribucion_Municipio,,
CEC-19-0474|MEX|ST_1|Cluster_NA|2019/10/07,,.,0901000010188,Ciudad de Mexico,Iztapalapa,.,Distribucion_Municipio,,
CEC-22-8037|MEX|ST_1|Cluster_NA|2022/06/21,,15940,0901600010374,Ciudad de Mexico,Venustiano Carranza,Morelos,Distribucion_Colonia,19.4396722,-99.1181152
CEC-19-0831|MEX|ST_1|Cluster_NA|2019/11/15,,.,090150001106A,Ciudad de Mexico,Tlalpan,.,Distribucion_Municipio,,
CEC-19-0104|MEX|ST_1|Cluster_NA|2019/08/23,,.,0900800010508,Ciudad de Mexico,Gustavo A. Madero,.,Distribucion_Municipio,,
CEC-22-8461|MEX|ST_1|Cluster_NA|2022/08/02,,.,0900900010505,Ciudad de Mexico,Iztacalco,.,Distribucion_Municipio,,
CEC-22-6736|MEX|ST_1|Cluster_NA|2022/03/08,,.,0900700015376,Ciudad de Mexico,Cuauhtemoc,Cuauhtemoc,Distribucion_Colonia,19.4326296,-99.1331785
CEC-19-0075|MEX|ST_1|Cluster_NA|2019/08/21,,.,0901000010277,Ciudad de Mexico,Iztapalapa,.,Distribucion_Municipio,,
CEC-19-0413|MEX|ST_1|Cluster_NA|2019/10/02,,.,0900400010195,Ciudad de Mexico,Benito Juarez_CDMX,.,Distribucion_Municipio,,
CEC-19-1007|MEX|ST_1|Cluster_NA|2019/12/09,,.,0900300011181,Ciudad de Mexico,Azcapotzalco,.,Distribucion_Municipio,,
CEC-20-1490|MEX|ST_1|Cluster_NA|2020/09/22,,02419,0900300010978,Ciudad de Mexico,Azcapotzalco,Trabajadores de PEMEX,Distribucion_Municipio,,
CEC-19-0322|MEX|ST_1|Cluster_NA|2019/09/18,,.,0901600010711,Ciudad de Mexico,Venustiano Carranza,.,Distribucion_Municipio,,
CEC-19-0109|MEX|ST_1|Cluster_NA|2019/08/23,,.,0900800010264,Ciudad de Mexico,Gustavo A. Madero,.,Distribucion_Municipio,,
CEC-19-0110|MEX|ST_1|Cluster_NA|2019/08/23,,.,0900700010407,Ciudad de Mexico,Cuauhtemoc,.,Distribucion_Municipio,,
CEC-20-1707|MEX|ST_1|Cluster_NA|2020/10/12,,.,090090100,Ciudad de Mexico,Iztacalco,.,Distribucion_Municipio,,
CEC-19-0390|MEX|ST_1|Cluster_476|2019/09/25,,.,090140001012A,Ciudad de Mexico,Tlahuac,.,Distribucion_Municipio,,
CEC-22-8112|MEX|ST_1|Cluster_NA|2022/06/29,,02419,0900300011266,Ciudad de Mexico,Azcapotzalco,Trabajadores de PEMEX,Distribucion_Municipio,,
CEC-21-5060|MEX|ST_1|Cluster_NA|2021/10/01,,02109,0900300010357,Ciudad de Mexico,Azcapotzalco,Manuel Rivera Anaya CROC 1,Distribucion_Colonia,19.5102439,-99.193275
CEC-19-0205|MEX|ST_1|Cluster_324|2019/09/06,,.,0901200011034,Ciudad de Mexico,Miguel Hidalgo,.,Distribucion_Municipio,,
CEC-21-4419|MEX|ST_1|Cluster_NA|2021/07/22,,.,0901000010760,Ciudad de Mexico,Iztapalapa,.,Distribucion_Municipio,,
CEC-21-2408|MEX|ST_1|Cluster_NA|2021/01/19,,.,0900700011301,Ciudad de Mexico,Cuauhtemoc,Roma Sur,Distribucion_Colonia,19.4058335,-99.1633037
CEC-22-7981|MEX|ST_1|Cluster_NA|2022/06/16,,15120,0901600011137,Ciudad de Mexico,Venustiano Carranza,Candelaria de los Patos FOVISSSTE,Distribucion_Municipio,,
CEC-19-0678|MEX|ST_1|Cluster_NA|2019/10/28,,.,0900200010720,Ciudad de Mexico,Alvaro Obregon,.,Distribucion_Municipio,,
CEC-22-8672|MEX|ST_1|Cluster_NA|2022/08/19,,.,0901000010953,Ciudad de Mexico,Iztapalapa,.,Distribucion_Municipio,,
CEC-21-4439|MEX|ST_1|Cluster_NA|2021/08/03,,.,0901600010374,Ciudad de Mexico,Venustiano Carranza,Morelos,Distribucion_Colonia,19.4396722,-99.1181152
CEC-19-0660|MEX|ST_1|Cluster_NA|2019/10/24,,.,0900700013505,Ciudad de Mexico,Cuauhtemoc,.,Distribucion_Municipio,,
CEC-22-8062|MEX|ST_1|Cluster_NA|2022/06/23,,09170,0901000012358,Ciudad de Mexico,Iztapalapa,La Colmena,Distribucion_Colonia,19.3678062,-99.0010104
CEC-19-0701|MEX|ST_1|Cluster_NA|2019/10/30,,.,0900700014310,Ciudad de Mexico,Cuauhtemoc,.,Distribucion_Municipio,,
CEC-22-8784|MEX|ST_1|Cluster_455|2022/08/29,,04270,0900500013214,Ciudad de Mexico,Coyoacan,Santa Martha del Sur Quetzalcoatl,Distribucion_Colonia,19.3373226,-99.127685
CEC-22-8229|MEX|ST_1|Cluster_NA|2022/07/07,,.,0900700014043,Ciudad de Mexico,Cuauhtemoc,San Rafael,Distribucion_Colonia,19.4379452,-99.1624218
CEC-19-0645|MEX|ST_1|Cluster_NA|2019/10/23,,.,0901600010529,Ciudad de Mexico,Venustiano Carranza,.,Distribucion_Municipio,,
CEC-20-2056|MEX|ST_1|Cluster_NA|2020/11/18,,.,0900900240581,Ciudad de Mexico,Iztacalco,Granjas Mexico,Distribucion_Colonia,19.4024446,-99.1051396
CEC-19-0732|MEX|ST_1|Cluster_NA|2019/11/06,,.,0900300010056,Ciudad de Mexico,Azcapotzalco,.,Distribucion_Municipio,,
CEC-21-2560|MEX|ST_1|Cluster_NA|2021/02/04,,.,0901600010285,Ciudad de Mexico,Venustiano Carranza,10 de Mayo,Distribucion_Colonia,19.4333386,-99.1171923
CEC-19-0854|MEX|ST_1|Cluster_NA|2019/11/20,,.,0901600010425,Ciudad de Mexico,Venustiano Carranza,.,Distribucion_Municipio,,
CEC-22-8464|MEX|ST_1|Cluster_NA|2022/08/03,,.,0901300010300,Ciudad de Mexico,Milpa Alta,Cruztitla,Distribucion_Colonia,19.2146698,-99.0033347
CEC-22-8245|MEX|ST_1|Cluster_NA|2022/07/07,,.,0901000011788,Ciudad de Mexico,Iztapalapa,Leyes de Reforma 1a Seccion,Distribucion_Colonia,19.3632066,-99.0709442
CEC-22-6637|MEX|ST_1|Cluster_NA|2022/03/01,,.,0900200010326,Ciudad de Mexico,Alvaro Obregon,Bosque,Distribucion_Colonia,19.387914,-99.2245628
CEC-22-7998|MEX|ST_1|Cluster_NA|2022/06/17,,.,090080001018A,Ciudad de Mexico,Gustavo A. Madero,La Pastora,Distribucion_Colonia,19.5239098,-99.1379032
CEC-19-0030|MEX|ST_1|Cluster_NA|2019/07/24,,.,0900800010156,Ciudad de Mexico,Gustavo A. Madero,.,Distribucion_Municipio,,
CEC-20-1486|MEX|ST_1|Cluster_NA|2020/09/21,,15120,0901600010548,Ciudad de Mexico,Venustiano Carranza,Candelaria de los Patos FOVISSSTE,Distribucion_Municipio,,
CEC-22-6909|MEX|ST_1|Cluster_NA|2022/03/24,,07549,090080001018A,Ciudad de Mexico,Gustavo A. Madero,La Esmeralda 2a Seccion,Distribucion_Colonia,19.4824234,-99.0846814
CEC-22-9055|MEX|ST_1|Cluster_NA|2022/09/23,,.,0900500013248,Ciudad de Mexico,Coyoacan,.,Distribucion_Municipio,,
CEC-19-0464|MEX|ST_1|Cluster_NA|2019/10/07,,.,0901200012367,Ciudad de Mexico,Miguel Hidalgo,.,Distribucion_Municipio,,
CEC-19-0894|MEX|ST_1|Cluster_NA|2019/11/22,,.,0900800010584,Ciudad de Mexico,Gustavo A. Madero,Lindavista Sur,Distribucion_Municipio,,
CEC-21-4159|MEX|ST_1|Cluster_NA|2021/06/30,,.,0900500012396,Ciudad de Mexico,Coyoacan,Pedregal de Santo Domingo,Distribucion_Colonia,19.3271575,-99.1678565
CEC-22-7997|MEX|ST_1|Cluster_NA|2022/06/17,,.,0900500012396,Ciudad de Mexico,Coyoacan,Pedregal de Santo Domingo,Distribucion_Colonia,19.3271575,-99.1678565
CEC-20-1255|MEX|ST_1|Cluster_NA|2020/08/25,,.,0901000010775,Ciudad de Mexico,Iztapalapa,Degollado,Distribucion_Colonia,19.3192634,-99.0423213
CEC-20-1243|MEX|ST_1|Cluster_NA|2020/08/21,,.,0901000010864,Ciudad de Mexico,Iztapalapa,.,Distribucion_Municipio,,
CEC-22-7456|MEX|ST_1|Cluster_NA|2022/05/10,,04350,0900500011311,Ciudad de Mexico,Coyoacan,Integracion Latinoamericana,Distribucion_Colonia,19.3383767,-99.1790712
CEC-19-0038|MEX|ST_1|Cluster_NA|2019/07/24,,.,0900500010421,Ciudad de Mexico,Coyoacan,.,Distribucion_Municipio,,
CEC-19-1000|MEX|ST_1|Cluster_NA|2019/12/09,,.,0901600010603,Ciudad de Mexico,Venustiano Carranza,.,Distribucion_Municipio,,
CEC-20-1506|MEX|ST_1|Cluster_NA|2020/09/23,,.,0901000011858,Ciudad de Mexico,Iztapalapa,.,Distribucion_Municipio,,
CEC-20-1461|MEX|ST_1|Cluster_NA|2020/09/17,,.,0900300010111,Ciudad de Mexico,Azcapotzalco,.,Distribucion_Municipio,,
CEC-22-6605|MEX|ST_1|Cluster_NA|2022/02/25,,10100,0901100011484,Ciudad de Mexico,La Magdalena Contreras,Unidad Independencia IMSS,Distribucion_Colonia,19.3337055,-99.2148887
CEC-22-8585|MEX|ST_1|Cluster_NA|2022/08/12,,04350,0900500011311,Ciudad de Mexico,Coyoacan,Integracion Latinoamericana,Distribucion_Colonia,19.3383767,-99.1790712
CEC-21-4335|MEX|ST_1|Cluster_NA|2021/07/16,,.,0901000010648,Ciudad de Mexico,Iztapalapa,.,Distribucion_Municipio,,
CEC-21-4448|MEX|ST_1|Cluster_NA|2021/08/04,,01048,0900200010805,Ciudad de Mexico,Alvaro Obregon,Las Aguilas,Distribucion_Colonia,19.3450028,-99.232351
CEC-19-0004|MEX|ST_1|Cluster_NA|2019/07/17,,.,0901500011303,Ciudad de Mexico,Tlalpan,.,Distribucion_Municipio,,
CEC-22-7957|MEX|ST_1|Cluster_NA|2022/06/15,,.,0901000010686,Ciudad de Mexico,Iztapalapa,.,Distribucion_Municipio,,
CEC-22-7464|MEX|ST_1|Cluster_25|2022/05/10,,.,0901400010882,Ciudad de Mexico,Tlahuac,.,Distribucion_Municipio,,
CEC-22-8727|MEX|ST_1|Cluster_NA|2022/08/22,,.,0901700010155,Ciudad de Mexico,Xochimilco,.,Distribucion_Municipio,,
CEC-22-6398|MEX|ST_1|Cluster_NA|2022/02/08,,.,0901000011171,Ciudad de Mexico,Iztapalapa,Lomas Estrella,Distribucion_Colonia,19.3221728,-99.0956838
CEC-22-6039|MEX|ST_1|Cluster_NA|2022/01/07,,09227,0901000011631,Ciudad de Mexico,Iztapalapa,Cabeza de Juarez,Distribucion_Colonia,19.3830521,-99.0388963
CEC-20-1396|MEX|ST_1|Cluster_NA|2020/09/09,,.,090100001167A,Ciudad de Mexico,Iztapalapa,San Pablo,Distribucion_Colonia,19.332988,-99.0035287
CEC-22-9344|MEX|ST_1|Cluster_NA|2022/10/20,,.,090101326,Ciudad de Mexico,Iztapalapa,San Antonio Culhuacan,Distribucion_Colonia,19.3418641,-99.1128882
CEC-19-0043|MEX|ST_1|Cluster_NA|2019/07/24,,.,0900700015198,Ciudad de Mexico,Cuauhtemoc,.,Distribucion_Municipio,,
CEC-22-7421|MEX|ST_1|Cluster_NA|2022/05/09,,.,0901500011515,Ciudad de Mexico,Tlalpan,San Pedro Martir,Distribucion_Colonia,19.2666211,-99.1671911
CEC-21-2946|MEX|ST_1|Cluster_NA|2021/03/12,,15940,0901600010374,Ciudad de Mexico,Venustiano Carranza,Morelos,Distribucion_Colonia,19.4396722,-99.1181152
CEC-20-1024|MEX|ST_1|Cluster_NA|2020/07/28,,09369,0901000012165,Ciudad de Mexico,Iztapalapa,Alborada,Distribucion_Colonia,19.351082,-99.0495377
CEC-22-9204|MEX|ST_1|Cluster_NA|2022/10/04,,.,0900400010049,Ciudad de Mexico,Benito Juarez_CDMX,Portales Norte,Distribucion_Colonia,19.3691521,-99.1495696
CEC-19-0751|MEX|ST_1|Cluster_NA|2019/11/08,,.,0901200010958,Ciudad de Mexico,Miguel Hidalgo,.,Distribucion_Municipio,,
CEC-19-0808|MEX|ST_1|Cluster_NA|2019/11/13,,.,0900300011497,Ciudad de Mexico,Azcapotzalco,El Rosario,Distribucion_Colonia,19.5041855,-99.200018
CEC-22-8456|MEX|ST_1|Cluster_NA|2022/08/02,,.,090100001231A,Ciudad de Mexico,Iztapalapa,.,Distribucion_Municipio,,
CEC-19-0642|MEX|ST_1|Cluster_NA|2019/10/23,,.,0900700011265,Ciudad de Mexico,Cuauhtemoc,.,Distribucion_Municipio,,
CEC-22-6166|MEX|ST_1|Cluster_NA|2022/01/18,,.,0900200010966,Ciudad de Mexico,Alvaro Obregon,El Rodeo,Distribucion_Colonia,19.3803527,-99.2086213
CEC-19-0169|MEX|ST_1|Cluster_198|2019/09/03,198.0,02109,0900300010357,Ciudad de Mexico,Azcapotzalco,Manuel Rivera Anaya CROC 1,Distribucion_Colonia,19.5102439,-99.193275
CEC-19-0976|MEX|ST_1|Cluster_NA|2019/12/04,,.,0900500012381,Ciudad de Mexico,Coyoacan,.,Distribucion_Municipio,,
CEC-22-6104|MEX|ST_1|Cluster_140|2022/01/13,,04350,0900500011311,Ciudad de Mexico,Coyoacan,Integracion Latinoamericana,Distribucion_Colonia,19.3383767,-99.1790712
CEC-20-1365|MEX|ST_1|Cluster_NA|2020/09/07,,.,0901000011379,Ciudad de Mexico,Iztapalapa,.,Distribucion_Municipio,,
CEC-22-7518|MEX|ST_1|Cluster_NA|2022/05/16,,01048,0900200010805,Ciudad de Mexico,Alvaro Obregon,Las Aguilas,Distribucion_Colonia,19.3450028,-99.232351
CEC-22-7519|MEX|ST_1|Cluster_NA|2022/05/16,,01048,0900200010805,Ciudad de Mexico,Alvaro Obregon,Las Aguilas,Distribucion_Colonia,19.3450028,-99.232351
CEC-21-4493|MEX|ST_1|Cluster_160|2021/08/06,160.0,09369,0901000012165,Ciudad de Mexico,Iztapalapa,Alborada,Distribucion_Colonia,19.351082,-99.0495377
CEC-19-0494|MEX|ST_1|Cluster_NA|2019/10/09,,.,0900700014791,Ciudad de Mexico,Cuauhtemoc,.,Distribucion_Municipio,,
CEC-20-1431|MEX|ST_1|Cluster_NA|2020/09/14,,02110,0900300011622,Ciudad de Mexico,Azcapotzalco,Ecologica Novedades Impacto,Distribucion_Colonia,19.508622,-99.1905604
CEC-19-0220|MEX|ST_1|Cluster_NA|2019/09/06,,.,0900500010883,Ciudad de Mexico,Coyoacan,.,Distribucion_Municipio,,
CEC-19-0547|MEX|ST_1|Cluster_NA|2019/10/11,,.,0901700010259,Ciudad de Mexico,Xochimilco,.,Distribucion_Municipio,,
CEC-22-6746|MEX|ST_1|Cluster_NA|2022/03/10,,.,0901100010325,Ciudad de Mexico,La Magdalena Contreras,El Tanque,Distribucion_Colonia,19.3246469,-99.2502854
CEC-21-2512|MEX|ST_1|Cluster_NA|2021/01/29,,.,0900700013153,Ciudad de Mexico,Cuauhtemoc,Guerrero,Distribucion_Colonia,19.4449101,-99.1451728
CEC-22-7046|MEX|ST_1|Cluster_NA|2022/04/04,,.,0900700012545,Ciudad de Mexico,Cuauhtemoc,Juarez,Distribucion_Colonia,19.4332704,-99.1476839
CEC-19-0595|MEX|ST_1|Cluster_NA|2019/10/18,,.,0900700015516,Ciudad de Mexico,Cuauhtemoc,.,Distribucion_Municipio,,
CEC-21-2404|MEX|ST_1|Cluster_NA|2021/01/19,,.,090070001141A,Ciudad de Mexico,Cuauhtemoc,Nonoalco Tlatelolco,Distribucion_Colonia,19.4530771,-99.1408516
CEC-20-1194|MEX|ST_1|Cluster_NA|2020/08/17,,.,0900900290469,Ciudad de Mexico,Iztacalco,.,Distribucion_Municipio,,
CEC-22-9879|MEX|ST_1|Cluster_NA|2022/12/15,,.,0901100010664,Ciudad de Mexico,La Magdalena Contreras,San Bernabe Ocotepec,Distribucion_Colonia,19.313799,-99.2560658
CEC-19-0195|MEX|ST_1|Cluster_254|2019/09/06,,.,0901600011141,Ciudad de Mexico,Venustiano Carranza,.,Distribucion_Municipio,,
CEC-22-9249|MEX|ST_1|Cluster_254|2022/10/10,,.,0901000011985,Ciudad de Mexico,Iztapalapa,Cuchilla del Moral,Distribucion_Colonia,19.3856579,-99.0738145
CEC-22-7378|MEX|ST_1|Cluster_NA|2022/05/04,,07269,0900800010457,Ciudad de Mexico,Gustavo A. Madero,El Arbolillo CTM,Distribucion_Colonia,19.530205,-99.1478194
CEC-19-0049|MEX|ST_1|Cluster_NA|2019/07/24,,.,0901500010470,Ciudad de Mexico,Tlalpan,.,Distribucion_Municipio,,
CEC-21-5053|MEX|ST_1|Cluster_NA|2021/09/30,,.,090100001060A,Ciudad de Mexico,Iztapalapa,Valle del Sur,Distribucion_Colonia,19.372696,-99.0226059
CEC-22-8457|MEX|ST_1|Cluster_NA|2022/08/02,,.,0901400010632,Ciudad de Mexico,Tlahuac,.,Distribucion_Municipio,,
CEC-19-0145|MEX|ST_1|Cluster_NA|2019/08/28,,.,090150001070A,Ciudad de Mexico,Tlalpan,.,Distribucion_Municipio,,
CEC-21-3949|MEX|ST_1|Cluster_NA|2021/06/09,,.,0901400010647,Ciudad de Mexico,Tlahuac,.,Distribucion_Municipio,,
CEC-19-0697|MEX|ST_1|Cluster_NA|2019/10/30,,.,0900700010110,Ciudad de Mexico,Cuauhtemoc,.,Distribucion_Municipio,,
CEC-19-0653|MEX|ST_1|Cluster_NA|2019/10/23,,.,0900700010731,Ciudad de Mexico,Cuauhtemoc,.,Distribucion_Municipio,,
CEC-19-0614|MEX|ST_1|Cluster_NA|2019/10/18,,.,0901000012076,Ciudad de Mexico,Iztapalapa,.,Distribucion_Municipio,,
CEC-19-0792|MEX|ST_1|Cluster_NA|2019/11/13,,.,0900400200246,Ciudad de Mexico,Benito Juarez_CDMX,.,Distribucion_Municipio,,
CEC-20-1710|MEX|ST_1|Cluster_NA|2020/10/13,,13229,0901400010717,Ciudad de Mexico,Tlahuac,Tlahuac 2,Distribucion_Colonia,19.3064749,-99.0416573
CEC-22-8992|MEX|ST_1|Cluster_NA|2022/09/19,,.,0901600010656,Ciudad de Mexico,Venustiano Carranza,.,Distribucion_Municipio,,
CEC-22-6705|MEX|ST_1|Cluster_NA|2022/03/07,,.,0900700014698,Ciudad de Mexico,Cuauhtemoc,Centro (Area 1),Distribucion_Colonia,19.4324484,-99.1360896
CEC-19-0259|MEX|ST_1|Cluster_NA|2019/09/11,,.,0901600010942,Ciudad de Mexico,Venustiano Carranza,.,Distribucion_Municipio,,
CEC-19-0031|MEX|ST_1|Cluster_NA|2019/07/24,,.,0900400010405,Ciudad de Mexico,Benito Juarez_CDMX,.,Distribucion_Municipio,,
CEC-19-0286|MEX|ST_1|Cluster_NA|2019/09/13,,.,0900500011398,Ciudad de Mexico,Coyoacan,.,Distribucion_Municipio,,
CEC-22-8323|MEX|ST_1|Cluster_NA|2022/07/15,,02729,0900300010450,Ciudad de Mexico,Azcapotzalco,Campo Encantado,Distribucion_Colonia,19.4811337,-99.1991394
CEC-19-0162|MEX|ST_1|Cluster_NA|2019/08/30,,.,0901500011271,Ciudad de Mexico,Tlalpan,.,Distribucion_Municipio,,
CEC-19-0605|MEX|ST_1|Cluster_NA|2019/10/18,,.,0900300011567,Ciudad de Mexico,Azcapotzalco,.,Distribucion_Municipio,,
CEC-19-0733|MEX|ST_1|Cluster_NA|2019/11/06,,07249,0900800010141,Ciudad de Mexico,Gustavo A. Madero,El Arbolillo II CROC,Distribucion_Colonia,19.5314605,-99.1429884
CEC-19-0321|MEX|ST_1|Cluster_NA|2019/09/18,,.,0900700013793,Ciudad de Mexico,Cuauhtemoc,.,Distribucion_Municipio,,
CEC-19-0594|MEX|ST_1|Cluster_NA|2019/10/18,,.,0900700015728,Ciudad de Mexico,Cuauhtemoc,.,Distribucion_Municipio,,
CEC-21-5279|MEX|ST_1|Cluster_NA|2021/10/20,,.,0901000012080,Ciudad de Mexico,Iztapalapa,Popular Oriente,Distribucion_Colonia,19.3791887,-99.0341632
CEC-19-0018|MEX|ST_1|Cluster_NA|2019/07/17,,.,0901000011970,Ciudad de Mexico,Iztapalapa,.,Distribucion_Municipio,,
CEC-22-8103|MEX|ST_1|Cluster_NA|2022/06/28,,02169,0900300011482,Ciudad de Mexico,Azcapotzalco,Villas de Azcapotzalco,Distribucion_Colonia,19.4748906,-99.1817671
CEC-20-1676|MEX|ST_1|Cluster_NA|2020/10/12,,.,0900700014698,Ciudad de Mexico,Cuauhtemoc,Centro (Area 1),Distribucion_Colonia,19.4324484,-99.1360896
CEC-19-0199|MEX|ST_1|Cluster_NA|2019/09/06,,.,0900500011646,Ciudad de Mexico,Coyoacan,.,Distribucion_Municipio,,
CEC-19-0734|MEX|ST_1|Cluster_NA|2019/11/06,,.,0900500012339,Ciudad de Mexico,Coyoacan,.,Distribucion_Municipio,,
CEC-20-1190|MEX|ST_1|Cluster_NA|2020/08/19,,.,0901000010915,Ciudad de Mexico,Iztapalapa,Granjas Estrella,Distribucion_Colonia,19.3235812,-99.0876494
CEC-21-3239|MEX|ST_1|Cluster_NA|2021/04/09,,.,0900700014698,Ciudad de Mexico,Cuauhtemoc,Centro (Area 1),Distribucion_Colonia,19.4324484,-99.1360896
CEC-21-3726|MEX|ST_1|Cluster_NA|2021/05/20,,15940,0901600010374,Ciudad de Mexico,Venustiano Carranza,Morelos,Distribucion_Colonia,19.4396722,-99.1181152
CEC-21-3061|MEX|ST_1|Cluster_NA|2021/03/24,,04720,0900500012254,Ciudad de Mexico,Coyoacan,Pedregal del Maurel,Distribucion_Colonia,19.3087764,-99.1753239
CEC-19-1017|MEX|ST_1|Cluster_NA|2019/12/09,,.,0900500011792,Ciudad de Mexico,Coyoacan,.,Distribucion_Municipio,,
CEC-20-0995|MEX|ST_1|Cluster_NA|2020/07/23,,.,0900200010805,Ciudad de Mexico,Alvaro Obregon,.,Distribucion_Municipio,,
CEC-19-0389|MEX|ST_1|Cluster_NA|2019/09/25,,.,0901000012057,Ciudad de Mexico,Iztapalapa,.,Distribucion_Municipio,,
CEC-21-2360|MEX|ST_1|Cluster_NA|2021/01/13,,02450,0900300010361,Ciudad de Mexico,Azcapotzalco,Las Trancas,Distribucion_Colonia,19.4911607,-99.1974444
CEC-19-0315|MEX|ST_1|Cluster_NA|2019/09/18,,.,0900700013647,Ciudad de Mexico,Cuauhtemoc,.,Distribucion_Municipio,,
CEC-19-0921|MEX|ST_1|Cluster_NA|2019/11/27,,.,0900500012108,Ciudad de Mexico,Coyoacan,.,Distribucion_Municipio,,
CEC-20-1291|MEX|ST_1|Cluster_NA|2020/08/28,,.,0901700010225,Ciudad de Mexico,Xochimilco,.,Distribucion_Municipio,,
CEC-19-0035|MEX|ST_1|Cluster_NA|2019/07/24,,.,0901500010644,Ciudad de Mexico,Tlalpan,.,Distribucion_Municipio,,
CEC-19-0998|MEX|ST_1|Cluster_NA|2019/12/09,,.,090050001217A,Ciudad de Mexico,Coyoacan,.,Distribucion_Municipio,,
CEC-20-1074|MEX|ST_1|Cluster_NA|2020/08/06,,.,0900700010500,Ciudad de Mexico,Cuauhtemoc,Roma Norte,Distribucion_Colonia,19.4183227,-99.1625655
CEC-20-2017|MEX|ST_1|Cluster_NA|2020/11/13,,.,090101326,Ciudad de Mexico,Iztapalapa,.,Distribucion_Municipio,,
CEC-22-8616|MEX|ST_1|Cluster_NA|2022/08/15,,15940,0901600010374,Ciudad de Mexico,Venustiano Carranza,Morelos,Distribucion_Colonia,19.4396722,-99.1181152
CEC-21-4908|MEX|ST_1|Cluster_NA|2021/09/21,,.,0900900290609,Ciudad de Mexico,Iztacalco,Campamento 2 de Octubre,Distribucion_Municipio,,
CEC-20-1410|MEX|ST_1|Cluster_NA|2020/09/11,,.,0900400010250,Ciudad de Mexico,Benito Juarez_CDMX,.,Distribucion_Municipio,,
CEC-19-0611|MEX|ST_1|Cluster_NA|2019/10/18,,.,0900700015291,Ciudad de Mexico,Cuauhtemoc,.,Distribucion_Municipio,,
CEC-19-0124|MEX|ST_1|Cluster_NA|2019/08/28,,.,0900300010658,Ciudad de Mexico,Azcapotzalco,.,Distribucion_Municipio,,
CEC-19-0489|MEX|ST_1|Cluster_NA|2019/10/09,,.,090150001088A,Ciudad de Mexico,Tlalpan,.,Distribucion_Municipio,,
CEC-19-0309|MEX|ST_1|Cluster_NA|2019/09/18,,.,0900600011130,Ciudad de Mexico,Cuajimalpa de Morelos,.,Distribucion_Municipio,,
CEC-20-2019|MEX|ST_1|Cluster_NA|2020/11/13,,.,0900200011023,Ciudad de Mexico,Alvaro Obregon,Tepeaca,Distribucion_Colonia,19.3613478,-99.2340223
CEC-22-9384|MEX|ST_1|Cluster_NA|2022/10/21,,09857,0901000011947,Ciudad de Mexico,Iztapalapa,San Lorenzo,Distribucion_Colonia,19.3799547,-99.1078366
CEC-19-0382|MEX|ST_1|Cluster_NA|2019/09/25,,.,0900900110435,Ciudad de Mexico,Iztacalco,.,Distribucion_Municipio,,
CEC-19-0784|MEX|ST_1|Cluster_NA|2019/11/13,,.,0900500010949,Ciudad de Mexico,Coyoacan,.,Distribucion_Municipio,,
CEC-21-2469|MEX|ST_1|Cluster_NA|2021/01/25,,10100,0901100011484,Ciudad de Mexico,La Magdalena Contreras,Unidad Independencia IMSS,Distribucion_Colonia,19.3337055,-99.2148887
CEC-22-7374|MEX|ST_1|Cluster_NA|2022/05/04,,.,0901000011519,Ciudad de Mexico,Iztapalapa,Santa Maria Aztahuacan,Distribucion_Colonia,19.3529612,-99.0244884
CEC-19-0188|MEX|ST_1|Cluster_NA|2019/09/04,,.,0901000010690,Ciudad de Mexico,Iztapalapa,.,Distribucion_Municipio,,
CEC-19-0924|MEX|ST_1|Cluster_NA|2019/11/27,,.,0900500010135,Ciudad de Mexico,Coyoacan,.,Distribucion_Municipio,,
CEC-19-0388|MEX|ST_1|Cluster_NA|2019/09/25,,.,0900900360223,Ciudad de Mexico,Iztacalco,.,Distribucion_Municipio,,
CEC-19-1013|MEX|ST_1|Cluster_NA|2019/12/09,,.,0900700015874,Ciudad de Mexico,Cuauhtemoc,.,Distribucion_Municipio,,
CEC-21-4782|MEX|ST_1|Cluster_NA|2021/09/08,,.,0901100010984,Ciudad de Mexico,La Magdalena Contreras,.,Distribucion_Municipio,,
CEC-19-0610|MEX|ST_1|Cluster_NA|2019/10/18,,.,0901000012358,Ciudad de Mexico,Iztapalapa,.,Distribucion_Municipio,,
CEC-21-4110|MEX|ST_1|Cluster_NA|2021/06/24,,.,0901000012201,Ciudad de Mexico,Iztapalapa,.,Distribucion_Municipio,,
CEC-19-0343|MEX|ST_1|Cluster_NA|2019/09/20,,02450,0900300011020,Ciudad de Mexico,Azcapotzalco,Miguel Hidalgo,Distribucion_Colonia,19.4937154,-99.1988243
CEC-19-0378|MEX|ST_1|Cluster_NA|2019/09/25,,.,0900400010369,Ciudad de Mexico,Benito Juarez_CDMX,.,Distribucion_Municipio,,
CEC-20-1389|MEX|ST_1|Cluster_NA|2020/09/08,,.,0901000011364,Ciudad de Mexico,Iztapalapa,.,Distribucion_Municipio,,
CEC-20-1660|MEX|ST_1|Cluster_NA|2020/10/09,,.,0900300010677,Ciudad de Mexico,Azcapotzalco,.,Distribucion_Municipio,,
CEC-19-0859|MEX|ST_1|Cluster_NA|2019/11/20,,.,0901600010887,Ciudad de Mexico,Venustiano Carranza,.,Distribucion_Municipio,,
CEC-20-1466|MEX|ST_1|Cluster_NA|2020/09/18,,.,0901300010669,Ciudad de Mexico,Milpa Alta,.,Distribucion_Municipio,,
CEC-20-1469|MEX|ST_1|Cluster_NA|2020/09/21,,.,0901300010851,Ciudad de Mexico,Milpa Alta,.,Distribucion_Municipio,,
CEC-22-9101|MEX|ST_1|Cluster_NA|2022/09/27,,09170,0901000012358,Ciudad de Mexico,Iztapalapa,La Colmena,Distribucion_Colonia,19.3678062,-99.0010104
CEC-19-0804|MEX|ST_1|Cluster_NA|2019/11/13,,.,0901000010718,Ciudad de Mexico,Iztapalapa,.,Distribucion_Municipio,,
CEC-21-4628|MEX|ST_1|Cluster_9|2021/08/19,,.,0901500011089,Ciudad de Mexico,Tlalpan,Guadalupe,Distribucion_Colonia,19.2891758,-99.1456885
CEC-19-0092|MEX|ST_1|Cluster_NA|2019/08/21,,.,0900800010175,Ciudad de Mexico,Gustavo A. Madero,.,Distribucion_Municipio,,
CEC-22-9798|MEX|ST_1|Cluster_NA|2022/12/07,,.,0900700010500,Ciudad de Mexico,Cuauhtemoc,Roma Norte,Distribucion_Colonia,19.4183227,-99.1625655
CEC-19-0412|MEX|ST_1|Cluster_NA|2019/10/02,,.,0900700015304,Ciudad de Mexico,Cuauhtemoc,.,Distribucion_Municipio,,
CEC-22-8931|MEX|ST_1|Cluster_NA|2022/09/08,,.,0901000011129,Ciudad de Mexico,Iztapalapa,.,Distribucion_Municipio,,
CEC-22-7198|MEX|ST_1|Cluster_NA|2022/04/19,,.,0900700012545,Ciudad de Mexico,Cuauhtemoc,Juarez,Distribucion_Colonia,19.4332704,-99.1476839
CEC-19-0305|MEX|ST_1|Cluster_NA|2019/09/17,,.,0901000010826,Ciudad de Mexico,Iztapalapa,.,Distribucion_Municipio,,
CEC-22-9161|MEX|ST_1|Cluster_NA|2022/09/30,,15940,0901600010374,Ciudad de Mexico,Venustiano Carranza,Morelos,Distribucion_Colonia,19.4396722,-99.1181152
CEC-19-0615|MEX|ST_1|Cluster_NA|2019/10/18,,.,0901000010845,Ciudad de Mexico,Iztapalapa,.,Distribucion_Municipio,,
